{
  "type": "FeatureCollection",
  "features": [
    {
      "type": "Feature",
      "properties": {
        "norad_id": 66885,
        "name": "STARLINK-35954",
        "group": "last-30-days",
        "lat": 49.79567645923688,
        "lon": 118.35920959200045,
        "alt_km": 402.9085600677254,
        "timestamp": "2025-12-27T10:28:57.516057+00:00",
        "meta_object_name": "STARLINK-35954",
        "meta_object_id": "2025-283H",
        "meta_epoch": "2025-12-27T04:00:01.998720",
        "meta_mean_motion": 15.53398301,
        "meta_eccentricity": 0.0001048,
        "meta_inclination": 53.1602,
        "meta_ra_of_asc_node": 2.1606,
        "meta_arg_of_pericenter": 74.5691,
        "meta_mean_anomaly": 322.0834,
        "meta_ephemeris_type": 0,
        "meta_classification_type": "U",
        "meta_norad_cat_id": 66885,
        "meta_element_set_no": 999,
        "meta_rev_at_epoch": 474,
        "meta_bstar": -0.035939,
        "meta_mean_motion_dot": -0.020617,
        "meta_mean_motion_ddot": 0,
        "tle_line1": "1 66885U 25283H   25361.16668980 -.02061700  00000+0 -35939-1 0  9991",
        "tle_line2": "2 66885  53.1602   2.1606 0001048  74.5691 322.0834 15.53398301  4747"
      },
      "geometry": {
        "type": "Point",
        "coordinates": [
          118.35920959200045,
          49.79567645923688
        ]
      }
    },
    {
      "type": "Feature",
      "properties": {
        "norad_id": 66886,
        "name": "STARLINK-35900",
        "group": "last-30-days",
        "lat": 48.25064337622741,
        "lon": 123.71133465192587,
        "alt_km": 403.1010660195425,
        "timestamp": "2025-12-27T10:28:57.516067+00:00",
        "meta_object_name": "STARLINK-35900",
        "meta_object_id": "2025-283J",
        "meta_epoch": "2025-12-27T04:00:01.998720",
        "meta_mean_motion": 15.53396847,
        "meta_eccentricity": 0.0001101,
        "meta_inclination": 53.1596,
        "meta_ra_of_asc_node": 2.1525,
        "meta_arg_of_pericenter": 77.5456,
        "meta_mean_anomaly": 322.9387,
        "meta_ephemeris_type": 0,
        "meta_classification_type": "U",
        "meta_norad_cat_id": 66886,
        "meta_element_set_no": 999,
        "meta_rev_at_epoch": 474,
        "meta_bstar": -0.035853,
        "meta_mean_motion_dot": -0.02057209,
        "meta_mean_motion_ddot": 0,
        "tle_line1": "1 66886U 25283J   25361.16668980 -.02057209  00000+0 -35853-1 0  9996",
        "tle_line2": "2 66886  53.1596   2.1525 0001101  77.5456 322.9387 15.53396847  4747"
      },
      "geometry": {
        "type": "Point",
        "coordinates": [
          123.71133465192587,
          48.25064337622741
        ]
      }
    },
    {
      "type": "Feature",
      "properties": {
        "norad_id": 66887,
        "name": "STARLINK-35925",
        "group": "last-30-days",
        "lat": 47.38844190762175,
        "lon": 126.2633544362539,
        "alt_km": 403.2549759238591,
        "timestamp": "2025-12-27T10:28:57.516077+00:00",
        "meta_object_name": "STARLINK-35925",
        "meta_object_id": "2025-283K",
        "meta_epoch": "2025-12-27T04:00:01.998720",
        "meta_mean_motion": 15.53395008,
        "meta_eccentricity": 0.0001054,
        "meta_inclination": 53.1598,
        "meta_ra_of_asc_node": 2.1485,
        "meta_arg_of_pericenter": 79.4279,
        "meta_mean_anomaly": 322.9751,
        "meta_ephemeris_type": 0,
        "meta_classification_type": "U",
        "meta_norad_cat_id": 66887,
        "meta_element_set_no": 999,
        "meta_rev_at_epoch": 474,
        "meta_bstar": -0.035798,
        "meta_mean_motion_dot": -0.02054239,
        "meta_mean_motion_ddot": 0,
        "tle_line1": "1 66887U 25283K   25361.16668980 -.02054239  00000+0 -35798-1 0  9995",
        "tle_line2": "2 66887  53.1598   2.1485 0001054  79.4279 322.9751 15.53395008  4749"
      },
      "geometry": {
        "type": "Point",
        "coordinates": [
          126.2633544362539,
          47.38844190762175
        ]
      }
    },
    {
      "type": "Feature",
      "properties": {
        "norad_id": 66888,
        "name": "STARLINK-35919",
        "group": "last-30-days",
        "lat": 46.46950110079346,
        "lon": 128.73393668337332,
        "alt_km": 403.4004579043303,
        "timestamp": "2025-12-27T10:28:57.516086+00:00",
        "meta_object_name": "STARLINK-35919",
        "meta_object_id": "2025-283L",
        "meta_epoch": "2025-12-27T04:00:01.998720",
        "meta_mean_motion": 15.53405872,
        "meta_eccentricity": 0.0001054,
        "meta_inclination": 53.1596,
        "meta_ra_of_asc_node": 2.1444,
        "meta_arg_of_pericenter": 79.9769,
        "meta_mean_anomaly": 324.3418,
        "meta_ephemeris_type": 0,
        "meta_classification_type": "U",
        "meta_norad_cat_id": 66888,
        "meta_element_set_no": 999,
        "meta_rev_at_epoch": 474,
        "meta_bstar": -0.036145,
        "meta_mean_motion_dot": -0.02072707,
        "meta_mean_motion_ddot": 0,
        "tle_line1": "1 66888U 25283L   25361.16668980 -.02072707  00000+0 -36145-1 0  9993",
        "tle_line2": "2 66888  53.1596   2.1444 0001054  79.9769 324.3418 15.53405872  4749"
      },
      "geometry": {
        "type": "Point",
        "coordinates": [
          128.73393668337332,
          46.46950110079346
        ]
      }
    },
    {
      "type": "Feature",
      "properties": {
        "norad_id": 66889,
        "name": "STARLINK-35852",
        "group": "last-30-days",
        "lat": 45.502602833107964,
        "lon": 131.11244623063774,
        "alt_km": 403.58453458269923,
        "timestamp": "2025-12-27T10:28:57.516096+00:00",
        "meta_object_name": "STARLINK-35852",
        "meta_object_id": "2025-283M",
        "meta_epoch": "2025-12-27T04:00:01.998720",
        "meta_mean_motion": 15.5339877,
        "meta_eccentricity": 0.0001057,
        "meta_inclination": 53.1599,
        "meta_ra_of_asc_node": 2.1399,
        "meta_arg_of_pericenter": 75.2005,
        "meta_mean_anomaly": 331.0348,
        "meta_ephemeris_type": 0,
        "meta_classification_type": "U",
        "meta_norad_cat_id": 66889,
        "meta_element_set_no": 999,
        "meta_rev_at_epoch": 474,
        "meta_bstar": -0.035921,
        "meta_mean_motion_dot": -0.02060784,
        "meta_mean_motion_ddot": 0,
        "tle_line1": "1 66889U 25283M   25361.16668980 -.02060784  00000+0 -35921-1 0  9997",
        "tle_line2": "2 66889  53.1599   2.1399 0001057  75.2005 331.0348 15.53398770  4742"
      },
      "geometry": {
        "type": "Point",
        "coordinates": [
          131.11244623063774,
          45.502602833107964
        ]
      }
    },
    {
      "type": "Feature",
      "properties": {
        "norad_id": 66890,
        "name": "STARLINK-35885",
        "group": "last-30-days",
        "lat": 44.48506857816065,
        "lon": 133.41524706546772,
        "alt_km": 403.7145330413032,
        "timestamp": "2025-12-27T10:28:57.516108+00:00",
        "meta_object_name": "STARLINK-35885",
        "meta_object_id": "2025-283N",
        "meta_epoch": "2025-12-27T04:00:01.998720",
        "meta_mean_motion": 15.53405996,
        "meta_eccentricity": 0.0001101,
        "meta_inclination": 53.1601,
        "meta_ra_of_asc_node": 2.1363,
        "meta_arg_of_pericenter": 77.1116,
        "meta_mean_anomaly": 331.0393,
        "meta_ephemeris_type": 0,
        "meta_classification_type": "U",
        "meta_norad_cat_id": 66890,
        "meta_element_set_no": 999,
        "meta_rev_at_epoch": 474,
        "meta_bstar": -0.036129,
        "meta_mean_motion_dot": -0.02071933,
        "meta_mean_motion_ddot": 0,
        "tle_line1": "1 66890U 25283N   25361.16668980 -.02071933  00000+0 -36129-1 0  9998",
        "tle_line2": "2 66890  53.1601   2.1363 0001101  77.1116 331.0393 15.53405996  4742"
      },
      "geometry": {
        "type": "Point",
        "coordinates": [
          133.41524706546772,
          44.48506857816065
        ]
      }
    },
    {
      "type": "Feature",
      "properties": {
        "norad_id": 66891,
        "name": "STARLINK-35855",
        "group": "last-30-days",
        "lat": 43.42492331104954,
        "lon": 135.63194217682008,
        "alt_km": 403.8120366002713,
        "timestamp": "2025-12-27T10:28:57.516118+00:00",
        "meta_object_name": "STARLINK-35855",
        "meta_object_id": "2025-283P",
        "meta_epoch": "2025-12-27T04:00:01.998720",
        "meta_mean_motion": 15.53395358,
        "meta_eccentricity": 0.0001248,
        "meta_inclination": 53.1602,
        "meta_ra_of_asc_node": 2.132,
        "meta_arg_of_pericenter": 77.8963,
        "meta_mean_anomaly": 332.1741,
        "meta_ephemeris_type": 0,
        "meta_classification_type": "U",
        "meta_norad_cat_id": 66891,
        "meta_element_set_no": 999,
        "meta_rev_at_epoch": 474,
        "meta_bstar": -0.03584,
        "meta_mean_motion_dot": -0.02056558,
        "meta_mean_motion_ddot": 0,
        "tle_line1": "1 66891U 25283P   25361.16668980 -.02056558  00000+0 -35840-1 0  9994",
        "tle_line2": "2 66891  53.1602   2.1320 0001248  77.8963 332.1741 15.53395358  4745"
      },
      "geometry": {
        "type": "Point",
        "coordinates": [
          135.63194217682008,
          43.42492331104954
        ]
      }
    }
  ]
}